IRIDIUM 155             
1 43573U 18061E   24098.86620549  .00000347  00000+0  11689-3 0  9992
2 43573  86.4010  31.1355 0002405  83.5404 276.6066 14.34217601298647
IRIDIUM 154             
1 43574U 18061F   24098.56808228  .00000323  00000+0  10817-3 0  9998
2 43574  86.4014  31.3543 0002024  88.7246 271.4182 14.34210022298654
IRIDIUM 163             
1 43575U 18061G   24098.89788743  .00000030  00000+0  35869-5 0  9995
2 43575  86.4014  31.1568 0002336  87.3678 272.7785 14.34215241298673
IRIDIUM 156             
1 43576U 18061H   24098.87252945  .00000339  00000+0  11407-3 0  9996
2 43576  86.4012  31.1737 0002273  81.1422 279.0031 14.34218675298666
IRIDIUM 164             
1 43577U 18061J   24098.78373160  .00000148  00000+0  45797-4 0  9998
2 43577  86.4012  31.2387 0002019  82.1360 278.0065 14.34217407298690
IRIDIUM 159             
1 43578U 18061K   24098.89155767  .00000180  00000+0  57162-4 0  9997
2 43578  86.4011  31.1473 0002091  87.9207 272.2228 14.34218780298678
IRIDIUM 180             
1 43922U 19002A   24099.17013310  .00000278  00000+0  92067-4 0  9996
2 43922  86.3972 327.9541 0002095  86.6331 273.5105 14.34219445274363
IRIDIUM 176             
1 43923U 19002B   24098.90722678  .00001015  00000+0  15702-3 0  9991
2 43923  86.6102 328.0909 0002436  90.0501 270.0995 14.72244688281501
IRIDIUM 168             
1 43924U 19002C   24099.16378184  .00000342  00000+0  11500-3 0  9994
2 43924  86.3975 328.0115 0002033  87.0774 273.0654 14.34219886274302
IRIDIUM 173             
1 43925U 19002D   24099.15110560  .00000327  00000+0  10958-3 0  9995
2 43925  86.3972 327.9384 0002097  87.9134 272.2302 14.34217999274297
IRIDIUM 169             
1 43926U 19002E   24099.15219053  .00000450  00000+0  14065-3 0  9993
2 43926  86.4281 359.5360 0004392  93.0212 267.1489 14.38600089275203
IRIDIUM 172             
1 43927U 19002F   24098.93546343  .00000302  00000+0  10078-3 0  9990
2 43927  86.3973 328.0341 0002006  87.0846 273.0580 14.34217686274263
IRIDIUM 175             
1 43928U 19002G   24098.83339303  .00000336  00000+0  49327-4 0  9993
2 43928  86.1474 305.2357 0002281  88.3897 271.7580 14.72234555281480
IRIDIUM 171             
1 43929U 19002H   24099.12572967  .00000287  00000+0  95528-4 0  9991
2 43929  86.3982 328.1722 0002103  81.7733 278.3701 14.34219197274287
IRIDIUM 170             
1 43930U 19002J   24099.11734436  .00001025  00000+0  15862-3 0  9996
2 43930  86.6101 328.0076 0002201  92.9921 267.1548 14.72262630281542
IRIDIUM 167             
1 43931U 19002K   24098.91007693  .00000105  00000+0  30506-4 0  9993
2 43931  86.3972 328.0602 0002122  83.9469 276.1968 14.34216105274250
IRIDIUM 181             
1 56726U 23068S   24098.47361270  .00000488  00000+0  13838-3 0  9993
2 56726  86.8692  18.5033 0002302  79.1637 280.9824 14.43561157 46939
IRIDIUM 177             
1 56727U 23068T   24099.18986665  .00001596  00000+0  20656-3 0  9991
2 56727  86.2012 348.6025 0002267  83.7495 276.3984 14.80235121 48029
IRIDIUM 174             
1 56728U 23068U   24099.18446749  .00001599  00000+0  20689-3 0  9995
2 56728  86.2020 348.7032 0002543  88.4246 271.7267 14.80234064 48029
IRIDIUM 178             
1 56729U 23068V   24099.17911487  .00001729  00000+0  22411-3 0  9991
2 56729  86.5836   2.8401 0002586  93.8292 266.3225 14.80229146 48023
IRIDIUM 179             
1 56730U 23068W   24098.49767200  .00001688  00000+0  21875-3 0  9996
2 56730  86.6848   6.3717 0002557  92.0710 268.0804 14.80228112 47924
